IRIDIUM 171             
1 43929U 19002H   25337.80947802  .00000407  00000+0  13821-3 0  9995
2 43929  86.3975  75.5352 0002160 102.6935 257.4503 14.34217918360958
IRIDIUM 170             
1 43930U 19002J   25337.75801134  .00001501  00000+0  23422-3 0  9992
2 43930  86.6090  75.2716 0002282  88.4068 271.7411 14.72248945370500
IRIDIUM 167             
1 43931U 19002K   25337.80313558  .00000183  00000+0  58441-4 0  9992
2 43931  86.3967  75.2736 0002129 109.6040 250.5386 14.34218486360958
IRIDIUM 181             
1 56726U 23068S   25337.52825426  .00000237  00000+0  64548-4 0  9991
2 56726  86.4506 138.5727 0002618  90.0967 270.0534 14.43312340134215
IRIDIUM 177             
1 56727U 23068T   25337.68357467  .00002266  00000+0  29459-3 0  9999
2 56727  86.1983  61.6320 0002434  92.1631 267.9868 14.80248999137446
IRIDIUM 174             
1 56728U 23068U   25337.67768405  .00000902  00000+0  13917-3 0  9994
2 56728  86.6096  75.4329 0002175  92.5562 267.5904 14.72258101137251
IRIDIUM 178             
1 56729U 23068V   25337.80782305  .00002690  00000+0  35064-3 0  9998
2 56729  86.6537 107.0307 0002174 101.7036 258.4430 14.80229644137463
IRIDIUM 179             
1 56730U 23068W   25337.80240982  .00002268  00000+0  29522-3 0  9993
2 56730  86.6783 115.4291 0002627  96.6446 263.5075 14.80206164137467
